TRANSPORTER-13 OBJECT AH
1 63241U 25052AH  26068.64880921  .00014108  00000+0  55931-3 0  9999
2 63241  97.3962 323.1443 0008070 138.7508 221.4341 15.25468797 54753
STARLINK-33690          
1 63406U 25065H   26068.41456087  .00034637  00000+0  12608-2 0  9995
2 63406  43.0027 104.6790 0004238 255.1959 104.8424 15.27613266 52848
